[{"OBJECT_NAME":"STARLINK-36520","OBJECT_ID":"2026-008X","EPOCH":"2026-03-09T09:33:21.178656","MEAN_MOTION":15.27590215,"ECCENTRICITY":0.0001317,"INCLINATION":42.9973,"RA_OF_ASC_NODE":207.2097,"ARG_OF_PERICENTER":273.7761,"MEAN_ANOMALY":86.294,"EPHEMERIS_TYPE":0,"CLASSIFICATION_TYPE":"U","NORAD_CAT_ID":67466,"ELEMENT_SET_NO":999,"REV_AT_EPOCH":952,"BSTAR":0.0010621209,"MEAN_MOTION_DOT":0.0002909,"MEAN_MOTION_DDOT":0},{"OBJECT_NAME":"CZ-6A R\/B","OBJECT_ID":"2023-168B","EPOCH":"2026-03-09T21:13:08.722272","MEAN_MOTION":15.16100791,"ECCENTRICITY":0.00607667,"INCLINATION":97.7542,"RA_OF_ASC_NODE":104.7688,"ARG_OF_PERICENTER":339.2379,"MEAN_ANOMALY":20.6386,"EPHEMERIS_TYPE":0,"CLASSIFICATION_TYPE":"U","NORAD_CAT_ID":58200,"ELEMENT_SET_NO":999,"REV_AT_EPOCH":12979,"BSTAR":0.00029693841,"MEAN_MOTION_DOT":5.919e-5,"MEAN_MOTION_DDOT":0}]
